HIMAWARI-8              
1 40267U 14060A   24286.57038448 -.00000275  00000+0  00000+0 0  9994
2 40267   0.0278 150.3940 0000718  82.2244 135.0589  1.00271896 36619
